[
    {
        "Altitude(m)": 612502.1868535314,
        "Argument of Periapsis(deg)": 0.0,
        "Eccentricity": 0.0,
        "Inclination(deg)": 60.0,
        "Latitude(deg)": -28.13594805453303,
        "Longitude(deg)": 97.14824682039098,
        "Mean Anomaly(deg)": -32.72730000000001,
        "RAAN(deg)": 215.0,
        "Satellite Name": "Test1 966",
        "Satellite Number": 966,
        "Semi-Major Axis(m)": 6980739.136638005,
        "Time(s)": 0
    },
    {
        "Altitude(m)": 612308.6348453056,
        "Argument of Periapsis(deg)": 0.00010418945913296404,
        "Eccentricity": 0.0,
        "Inclination(deg)": 60.0,
        "Latitude(deg)": -27.623003387560832,
        "Longitude(deg)": 97.50172094439066,
        "Mean Anomaly(deg)": -32.10719385453816,
        "RAAN(deg)": 214.99957995086024,
        "Satellite Name": "Test1 966",
        "Satellite Number": 966,
        "Semi-Major Axis(m)": 6980739.136638005,
        "Time(s)": 10
    }
]